THURAYA-4               
1 62483U 25001A   26155.43118957  .00000151  00000+0  00000+0 0  9993
2 62483   0.0291  66.8931 0000200  44.5015 341.0323  1.00273010  4050
SHIJIAN-25 (SJ-25)      
1 62485U 25002A   26154.73046222 -.00000339  00000+0  00000+0 0  9992
2 62485   5.0812  61.2456 0051546 172.8146  48.3391  1.00281646  5222
TJS-14                  
1 62804U 25017A   26156.21041037  .00000127  00000+0  00000+0 0  9991
2 62804   0.8104 294.7710 0000554 272.2812 140.7143  1.00270239  5158
SPAINSAT NG I           
1 62852U 25021A   26155.99860436  .00000164  00000+0  00000+0 0  9996
2 62852   0.0188 335.2486 0000383 163.5728 143.1239  1.00273199  3861
QZS-6 (MICHIBIKI-6)     
1 62876U 25023A   26155.51167161 -.00000220  00000+0  00000+0 0  9991
2 62876   0.0204  28.4634 0002571  48.7616  90.3882  1.00268510  4828
ZHONGXING-10R           
1 63075U 25036A   26156.08600953 -.00000340  00000+0  00000+0 0  9994
2 63075   0.0505 253.2892 0003327 246.1552 255.5868  1.00271939  4830
TJS-15                  
1 63157U 25045A   26154.73236772 -.00000253  00000+0  00000+0 0  9992
2 63157   0.2813  85.2729 0005568 299.9874 224.9861  1.00270021  4620
TIANLIAN 2-04           
1 63361U 25062A   26155.93739898 -.00000124  00000+0  00000+0 0  9995
2 63361   4.4068 274.6150 0031396  10.7837  25.5105  1.00270812  4481
TJS-16                  
1 63397U 25064A   26154.66338115 -.00000093  00000+0  00000+0 0  9997
2 63397   1.0632  81.5310 0003818 294.0276 275.9734  1.00272690  4255
TJS-17                  
1 63524U 25073A   26154.67086645 -.00000058  00000+0  00000+0 0  9999
2 63524   1.0290  82.8055 0002604 301.6214 273.7230  1.00272521  4155
TIANLIAN 2-05           
1 63662U 25084A   26156.13945848  .00000136  00000+0  00000+0 0  9992
2 63662   4.4824 279.9717 0003622 145.1761 259.0446  1.00272796  4263
TJS-19                  
1 63924U 25097A   26154.73757059 -.00000264  00000+0  00000+0 0  9999
2 63924   3.3094 317.2183 0001784 231.8983 109.9058  1.00271334  4001
CHINASAT 3B             
1 64062U 25106A   26156.16857861 -.00000033  00000+0  00000+0 0  9999
2 64062   0.0280  93.6611 0002897  13.8663  14.0879  1.00270933  3949
SXM-10                  
1 64290U 25122A   26155.32821205 -.00000005  00000+0  00000+0 0  9999
2 64290   0.0229  29.7759 0001855 349.2301 235.7575  1.00270897  3557
COSMOS 2589             
1 64467U 25131A   26154.76586953 -.00000279  00000+0  00000+0 0  9993
2 64467   0.0530  63.9284 0001603  88.0699 113.9489  1.00270027  3422
CHINASAT 9C             
1 64470U 25132A   26156.11969647 -.00000235  00000+0  00000+0 0  9996
2 64470   0.0344 261.3776 0003107 179.9342 307.5270  1.00269807  4025
MTG-S1                  
1 64723U 25143A   26156.13477845 -.00000020  00000+0  00000+0 0  9997
2 64723   0.6139 336.2823 0001169  37.1723 285.1622  1.00271612  3290
DROR 1                  
1 64784U 25148A   26156.13460513 -.00000022  00000+0  00000+0 0  9995
2 64784   0.0092 319.0026 0003051  72.5208 266.4998  1.00271739  3171
SHIYAN-29               
1 65486U 25196A   26156.09191714 -.00000260  00000+0  00000+0 0  9991
2 65486  28.8083  18.6895 0010692 170.6004 191.6413  1.00258324  2768
NUSANTARA LIMA (NUSANT*)
1 65588U 25205A   26155.37353532 -.00000345  00000+0  00000+0 0  9997
2 65588   0.0374 132.5739 0000544 325.7392  41.8300  1.00270284  2598
TJS-20                  
1 66142U 25238A   26156.00519108  .00000035  00000+0  00000+0 0  9999
2 66142   5.4974 299.5994 0004839 153.9763 224.1161  1.00272106  2216
CMS-03 (GSAT-7R)        
1 66311U 25249B   26155.43716959 -.00000065  00000+0  00000+0 0  9992
2 66311   0.0345 261.3999 0002859 141.5029  81.3454  1.00272551  2220
VIASAT-3 F2             
1 66454U 25261A   26155.62076725 -.00000221  00000+0  00000+0 0  9999
2 66454   0.0471 147.9948 0000183 316.4701 293.0766  1.00271444  2665
SHIJIAN-28 (SJ-28)      
1 66549U 25277A   26156.08704954 -.00000349  00000+0  00000+0 0  9995
2 66549   4.5702 272.3252 0000363   5.6590 123.7877  1.00270244  2030
TJS-22                  
1 66990U 25290A   26155.90883583  .00000006  00000+0  00000+0 0  9995
2 66990   1.5579 286.4123 0002024 334.0962  26.4643  1.00271572  1900
TJS-23                  
1 67226U 25306A   26155.63645691  .00000027  00000+0  00000+0 0  9995
2 67226   5.6161 297.5556 0004982 163.1355 196.9840  1.00272382  1766
FENGYUN 4C              
1 67246U 25312A   26156.01923115 -.00000311  00000+0  00000+0 0  9994
2 67246   0.0395 149.4658 0000636  17.9429 225.9691  1.00270463  1657
SHIJIAN-29A (SJ-29A)    
1 67302U 25315A   26155.93609898 -.00000056  00000+0  00000+0 0  9995
2 67302   3.3662  95.4127 0003375  18.6508 189.5725  1.00270241  1492
SHIJIAN-29B (SJ-29B)    
1 67403U 25315C   26155.93609898 -.00000056  00000+0  00000+0 0  9997
2 67403   3.3652  95.4036 0003588  21.0950 187.1810  1.00270221  1562
ELEKTRO-L 5             
1 67756U 26028A   26156.08457924 -.00000085  00000+0  00000+0 0  9990
2 67756   0.2741 307.3681 0001527 183.2157 229.4354  1.00271291  1134
JAM-E JAM 1             
1 67757U 26028B   26156.14214515  .00000168  00000+0  00000+0 0  9996
2 67757   0.2864 298.8364 0000722 301.6733  98.1457  1.00270519  1008
ECHOSTAR 25             
1 68126U 26045A   26156.11365631  .00000000  00000+0  00000+0 0  9994
2 68126   0.0140 349.0701 0001319  96.8728  98.5343  1.00268923   876
