OBJECT_NAME,OBJECT_ID,EPOCH,MEAN_MOTION,ECCENTRICITY,INCLINATION,RA_OF_ASC_NODE,ARG_OF_PERICENTER,MEAN_ANOMALY,EPHEMERIS_TYPE,CLASSIFICATION_TYPE,NORAD_CAT_ID,ELEMENT_SET_NO,REV_AT_EPOCH,BSTAR,MEAN_MOTION_DOT,MEAN_MOTION_DDOT
THURAYA-4,2025-001A,2026-06-04T10:20:54.778848,1.00273010,.00002009,0.0291,66.8931,44.5015,341.0323,0,U,62483,999,405,0,.151E-5,0
SHIJIAN-25 (SJ-25),2025-002A,2026-06-03T17:31:51.935808,1.00281646,.0051546,5.0812,61.2456,172.8146,48.3391,0,U,62485,999,522,0,-.339E-5,0
TJS-14,2025-017A,2026-06-05T05:02:59.455968,1.00270239,.0000554,0.8104,294.7710,272.2812,140.7143,0,U,62804,999,515,0,.127E-5,0
SPAINSAT NG I,2025-021A,2026-06-04T23:57:59.416704,1.00273199,.0000383,0.0188,335.2486,163.5728,143.1239,0,U,62852,999,386,0,.164E-5,0
QZS-6 (MICHIBIKI-6),2025-023A,2026-06-04T12:16:48.427104,1.00268510,.00025716,0.0204,28.4634,48.7616,90.3882,0,U,62876,999,482,0,-.22E-5,0
ZHONGXING-10R,2025-036A,2026-06-05T02:03:51.223392,1.00271939,.0003327,0.0505,253.2892,246.1552,255.5868,0,U,63075,999,483,0,-.34E-5,0
TJS-15,2025-045A,2026-06-03T17:34:36.571008,1.00270021,.0005568,0.2813,85.2729,299.9874,224.9861,0,U,63157,999,462,0,-.253E-5,0
TIANLIAN 2-04,2025-062A,2026-06-04T22:29:51.271872,1.00270812,.0031396,4.4068,274.6150,10.7837,25.5105,0,U,63361,999,448,0,-.124E-5,0
TJS-16,2025-064A,2026-06-03T15:55:16.131360,1.00272690,.0003818,1.0632,81.5310,294.0276,275.9734,0,U,63397,999,425,0,-.93E-6,0
TJS-17,2025-073A,2026-06-03T16:06:02.861280,1.00272521,.0002604,1.0290,82.8055,301.6214,273.7230,0,U,63524,999,415,0,-.58E-6,0
TIANLIAN 2-05,2025-084A,2026-06-05T03:20:49.212672,1.00272796,.0003622,4.4824,279.9717,145.1761,259.0446,0,U,63662,999,426,0,.136E-5,0
TJS-19,2025-097A,2026-06-03T17:42:06.098976,1.00271334,.0001784,3.3094,317.2183,231.8983,109.9058,0,U,63924,999,400,0,-.264E-5,0
CHINASAT 3B,2025-106A,2026-06-05T04:02:45.191904,1.00270933,.0002897,0.0280,93.6611,13.8663,14.0879,0,U,64062,999,394,0,-.33E-6,0
SXM-10,2025-122A,2026-06-04T07:52:37.521120,1.00270897,.0001855,0.0229,29.7759,349.2301,235.7575,0,U,64290,999,355,0,-.5E-7,0
COSMOS 2589,2025-131A,2026-06-03T18:22:51.127392,1.00270027,.0001603,0.0530,63.9284,88.0699,113.9489,0,U,64467,999,342,0,-.279E-5,0
CHINASAT 9C,2025-132A,2026-06-05T02:52:21.775008,1.00269807,.0003107,0.0344,261.3776,179.9342,307.5270,0,U,64470,999,402,0,-.235E-5,0
MTG-S1,2025-143A,2026-06-05T03:14:04.858080,1.00271612,.0001169,0.6139,336.2823,37.1723,285.1622,0,U,64723,999,329,0,-.2E-6,0
DROR 1,2025-148A,2026-06-05T03:13:49.883232,1.00271739,.0003051,0.0092,319.0026,72.5208,266.4998,0,U,64784,999,317,0,-.22E-6,0
SHIYAN-29,2025-196A,2026-06-05T02:12:21.640896,1.00258324,.0010692,28.8083,18.6895,170.6004,191.6413,0,U,65486,999,276,0,-.26E-5,0
NUSANTARA LIMA (NUSANTARA 5),2025-205A,2026-06-04T08:57:53.451648,1.00270284,.00005441,0.0374,132.5739,325.7392,41.8300,0,U,65588,999,259,0,-.345E-5,0
TJS-20,2025-238A,2026-06-05T00:07:28.509312,1.00272106,.0004839,5.4974,299.5994,153.9763,224.1161,0,U,66142,999,221,0,.35E-6,0
CMS-03 (GSAT-7R),2025-249B,2026-06-04T10:29:31.452576,1.00272551,.00028595,0.0345,261.3999,141.5029,81.3454,0,U,66311,999,222,0,-.65E-6,0
VIASAT-3 F2,2025-261A,2026-06-04T14:53:54.290400,1.00271444,.00001834,0.0471,147.9948,316.4701,293.0766,0,U,66454,999,266,0,-.221E-5,0
SHIJIAN-28 (SJ-28),2025-277A,2026-06-05T02:05:21.080256,1.00270244,.0000363,4.5702,272.3252,5.6590,123.7877,0,U,66549,999,203,0,-.349E-5,0
TJS-22,2025-290A,2026-06-04T21:48:43.415712,1.00271572,.0002024,1.5579,286.4123,334.0962,26.4643,0,U,66990,999,190,0,.6E-7,0
TJS-23,2025-306A,2026-06-04T15:16:29.877024,1.00272382,.0004982,5.6161,297.5556,163.1355,196.9840,0,U,67226,999,176,0,.27E-6,0
FENGYUN 4C,2025-312A,2026-06-05T00:27:41.571360,1.00270463,.0000636,0.0395,149.4658,17.9429,225.9691,0,U,67246,999,165,0,-.311E-5,0
SHIJIAN-29A (SJ-29A),2025-315A,2026-06-04T22:27:58.951872,1.00270241,.00033756,3.3662,95.4127,18.6508,189.5725,0,U,67302,999,149,0,-.56E-6,0
SHIJIAN-29B (SJ-29B),2025-315C,2026-06-04T22:27:58.951872,1.00270221,.00035887,3.3652,95.4036,21.0950,187.1810,0,U,67403,999,156,0,-.56E-6,0
ELEKTRO-L 5,2026-028A,2026-06-05T02:01:47.646336,1.00271291,.0001527,0.2741,307.3681,183.2157,229.4354,0,U,67756,999,113,0,-.85E-6,0
JAM-E JAM 1,2026-028B,2026-06-05T03:24:41.340960,1.00270519,.0000722,0.2864,298.8364,301.6733,98.1457,0,U,67757,999,100,0,.168E-5,0
ECHOSTAR 25,2026-045A,2026-06-05T02:43:39.905184,1.00268923,.0001319,0.0140,349.0701,96.8728,98.5343,0,U,68126,999,87,0,0,0
